{
  "type": "FeatureCollection",
  "crs": {
    "type": "name",
    "properties": {
      "name": "urn:ogc:def:crs:OGC:1.3:CRS84"
    }
  },
  "meta": {
    "generated_at": "2026-09-16T19:30:24.243348+00:00",
    "total_cells": 85,
    "total_sectors": 8
  },
  "features": [
    {
      "type": "Feature",
      "geometry": {
        "type": "Polygon",
        "coordinates": [
          [
            [
              88.075,
              26.875
            ],
            [
              88.325,
              26.875
            ],
            [
              88.325,
              27.125
            ],
            [
              88.075,
              27.125
            ],
            [
              88.075,
              26.875
            ]
          ]
        ]
      },
      "properties": {
        "cell_id": "NER_CELL_2700_8820",
        "latitude": 27.0,
        "longitude": 88.2,
        "state": "Sikkim",
        "elevation_m": 1790.0,
        "slope_deg": 28.5,
        "base_susceptibility": 100,
        "current_risk": 0,
        "risk_level": "VERY_LOW",
        "risk_24h": 1,
        "risk_24h_level": "VERY_LOW",
        "data_quality": "GOOD",
        "rainfall_24h_mm": 49.69,
        "rainfall_72h_mm": 85.47,
        "soil_moisture": 0.338,
        "model_version": "v1.0",
        "updated_at": "2026-09-16T19:30:24.243348+00:00"
      }
    },
    {
      "type": "Feature",
      "geometry": {
        "type": "Polygon",
        "coordinates": [
          [
            [
              88.325,
              26.875
            ],
            [
              88.575,
              26.875
            ],
            [
              88.575,
              27.125
            ],
            [
              88.325,
              27.125
            ],
            [
              88.325,
              26.875
            ]
          ]
        ]
      },
      "properties": {
        "cell_id": "NER_CELL_2700_8845",
        "latitude": 27.0,
        "longitude": 88.45,
        "state": "Sikkim",
        "elevation_m": 1840.0,
        "slope_deg": 28.5,
        "base_susceptibility": 99,
        "current_risk": 0,
        "risk_level": "VERY_LOW",
        "risk_24h": 1,
        "risk_24h_level": "VERY_LOW",
        "data_quality": "GOOD",
        "rainfall_24h_mm": 49.69,
        "rainfall_72h_mm": 85.47,
        "soil_moisture": 0.341,
        "model_version": "v1.0",
        "updated_at": "2026-09-16T19:30:24.243348+00:00"
      }
    },
    {
      "type": "Feature",
      "geometry": {
        "type": "Polygon",
        "coordinates": [
          [
            [
              88.575,
              26.875
            ],
            [
              88.825,
              26.875
            ],
            [
              88.825,
              27.125
            ],
            [
              88.575,
              27.125
            ],
            [
              88.575,
              26.875
            ]
          ]
        ]
      },
      "properties": {
        "cell_id": "NER_CELL_2700_8870",
        "latitude": 27.0,
        "longitude": 88.7,
        "state": "Sikkim",
        "elevation_m": 1890.0,
        "slope_deg": 28.5,
        "base_susceptibility": 100,
        "current_risk": 0,
        "risk_level": "VERY_LOW",
        "risk_24h": 1,
        "risk_24h_level": "VERY_LOW",
        "data_quality": "GOOD",
        "rainfall_24h_mm": 49.69,
        "rainfall_72h_mm": 85.47,
        "soil_moisture": 0.344,
        "model_version": "v1.0",
        "updated_at": "2026-09-16T19:30:24.243348+00:00"
      }
    },
    {
      "type": "Feature",
      "geometry": {
        "type": "Polygon",
        "coordinates": [
          [
            [
              88.825,
              26.875
            ],
            [
              89.075,
              26.875
            ],
            [
              89.075,
              27.125
            ],
            [
              88.825,
              27.125
            ],
            [
              88.825,
              26.875
            ]
          ]
        ]
      },
      "properties": {
        "cell_id": "NER_CELL_2700_8895",
        "latitude": 27.0,
        "longitude": 88.95,
        "state": "Sikkim",
        "elevation_m": 1940.0,
        "slope_deg": 28.5,
        "base_susceptibility": 100,
        "current_risk": 0,
        "risk_level": "VERY_LOW",
        "risk_24h": 1,
        "risk_24h_level": "VERY_LOW",
        "data_quality": "GOOD",
        "rainfall_24h_mm": 49.69,
        "rainfall_72h_mm": 85.47,
        "soil_moisture": 0.347,
        "model_version": "v1.0",
        "updated_at": "2026-09-16T19:30:24.243348+00:00"
      }
    },
    {
      "type": "Feature",
      "geometry": {
        "type": "Polygon",
        "coordinates": [
          [
            [
              88.075,
              27.125
            ],
            [
              88.325,
              27.125
            ],
            [
              88.325,
              27.375
            ],
            [
              88.075,
              27.375
            ],
            [
              88.075,
              27.125
            ]
          ]
        ]
      },
      "properties": {
        "cell_id": "NER_CELL_2725_8820",
        "latitude": 27.25,
        "longitude": 88.2,
        "state": "Sikkim",
        "elevation_m": 1952.5,
        "slope_deg": 29.5,
        "base_susceptibility": 100,
        "current_risk": 0,
        "risk_level": "VERY_LOW",
        "risk_24h": 1,
        "risk_24h_level": "VERY_LOW",
        "data_quality": "GOOD",
        "rainfall_24h_mm": 51.24,
        "rainfall_72h_mm": 88.13,
        "soil_moisture": 0.342,
        "model_version": "v1.0",
        "updated_at": "2026-09-16T19:30:24.243348+00:00"
      }
    },
    {
      "type": "Feature",
      "geometry": {
        "type": "Polygon",
        "coordinates": [
          [
            [
              88.325,
              27.125
            ],
            [
              88.575,
              27.125
            ],
            [
              88.575,
              27.375
            ],
            [
              88.325,
              27.375
            ],
            [
              88.325,
              27.125
            ]
          ]
        ]
      },
      "properties": {
        "cell_id": "NER_CELL_2725_8845",
        "latitude": 27.25,
        "longitude": 88.45,
        "state": "Sikkim",
        "elevation_m": 2002.5,
        "slope_deg": 29.5,
        "base_susceptibility": 100,
        "current_risk": 0,
        "risk_level": "VERY_LOW",
        "risk_24h": 1,
        "risk_24h_level": "VERY_LOW",
        "data_quality": "GOOD",
        "rainfall_24h_mm": 51.24,
        "rainfall_72h_mm": 88.13,
        "soil_moisture": 0.345,
        "model_version": "v1.0",
        "updated_at": "2026-09-16T19:30:24.243348+00:00"
      }
    },
    {
      "type": "Feature",
      "geometry": {
        "type": "Polygon",
        "coordinates": [
          [
            [
              88.575,
              27.125
            ],
            [
              88.825,
              27.125
            ],
            [
              88.825,
              27.375
            ],
            [
              88.575,
              27.375
            ],
            [
              88.575,
              27.125
            ]
          ]
        ]
      },
      "properties": {
        "cell_id": "NER_CELL_2725_8870",
        "latitude": 27.25,
        "longitude": 88.7,
        "state": "Sikkim",
        "elevation_m": 2052.5,
        "slope_deg": 29.5,
        "base_susceptibility": 100,
        "current_risk": 0,
        "risk_level": "VERY_LOW",
        "risk_24h": 1,
        "risk_24h_level": "VERY_LOW",
        "data_quality": "GOOD",
        "rainfall_24h_mm": 51.24,
        "rainfall_72h_mm": 88.13,
        "soil_moisture": 0.348,
        "model_version": "v1.0",
        "updated_at": "2026-09-16T19:30:24.243348+00:00"
      }
    },
    {
      "type": "Feature",
      "geometry": {
        "type": "Polygon",
        "coordinates": [
          [
            [
              88.825,
              27.125
            ],
            [
              89.075,
              27.125
            ],
            [
              89.075,
              27.375
            ],
            [
              88.825,
              27.375
            ],
            [
              88.825,
              27.125
            ]
          ]
        ]
      },
      "properties": {
        "cell_id": "NER_CELL_2725_8895",
        "latitude": 27.25,
        "longitude": 88.95,
        "state": "Sikkim",
        "elevation_m": 2102.5,
        "slope_deg": 29.5,
        "base_susceptibility": 100,
        "current_risk": 0,
        "risk_level": "VERY_LOW",
        "risk_24h": 1,
        "risk_24h_level": "VERY_LOW",
        "data_quality": "GOOD",
        "rainfall_24h_mm": 51.24,
        "rainfall_72h_mm": 88.13,
        "soil_moisture": 0.351,
        "model_version": "v1.0",
        "updated_at": "2026-09-16T19:30:24.243348+00:00"
      }
    },
    {
      "type": "Feature",
      "geometry": {
        "type": "Polygon",
        "coordinates": [
          [
            [
              88.075,
              27.375
            ],
            [
              88.325,
              27.375
            ],
            [
              88.325,
              27.625
            ],
            [
              88.075,
              27.625
            ],
            [
              88.075,
              27.375
            ]
          ]
        ]
      },
      "properties": {
        "cell_id": "NER_CELL_2750_8820",
        "latitude": 27.5,
        "longitude": 88.2,
        "state": "Sikkim",
        "elevation_m": 2115.0,
        "slope_deg": 30.5,
        "base_susceptibility": 100,
        "current_risk": 0,
        "risk_level": "VERY_LOW",
        "risk_24h": 1,
        "risk_24h_level": "VERY_LOW",
        "data_quality": "GOOD",
        "rainfall_24h_mm": 52.68,
        "rainfall_72h_mm": 90.61,
        "soil_moisture": 0.346,
        "model_version": "v1.0",
        "updated_at": "2026-09-16T19:30:24.243348+00:00"
      }
    },
    {
      "type": "Feature",
      "geometry": {
        "type": "Polygon",
        "coordinates": [
          [
            [
              88.325,
              27.375
            ],
            [
              88.575,
              27.375
            ],
            [
              88.575,
              27.625
            ],
            [
              88.325,
              27.625
            ],
            [
              88.325,
              27.375
            ]
          ]
        ]
      },
      "properties": {
        "cell_id": "NER_CELL_2750_8845",
        "latitude": 27.5,
        "longitude": 88.45,
        "state": "Sikkim",
        "elevation_m": 2165.0,
        "slope_deg": 30.5,
        "base_susceptibility": 100,
        "current_risk": 0,
        "risk_level": "VERY_LOW",
        "risk_24h": 1,
        "risk_24h_level": "VERY_LOW",
        "data_quality": "GOOD",
        "rainfall_24h_mm": 52.68,
        "rainfall_72h_mm": 90.61,
        "soil_moisture": 0.348,
        "model_version": "v1.0",
        "updated_at": "2026-09-16T19:30:24.243348+00:00"
      }
    },
    {
      "type": "Feature",
      "geometry": {
        "type": "Polygon",
        "coordinates": [
          [
            [
              88.575,
              27.375
            ],
            [
              88.825,
              27.375
            ],
            [
              88.825,
              27.625
            ],
            [
              88.575,
              27.625
            ],
            [
              88.575,
              27.375
            ]
          ]
        ]
      },
      "properties": {
        "cell_id": "NER_CELL_2750_8870",
        "latitude": 27.5,
        "longitude": 88.7,
        "state": "Sikkim",
        "elevation_m": 2215.0,
        "slope_deg": 30.5,
        "base_susceptibility": 100,
        "current_risk": 0,
        "risk_level": "VERY_LOW",
        "risk_24h": 1,
        "risk_24h_level": "VERY_LOW",
        "data_quality": "GOOD",
        "rainfall_24h_mm": 52.68,
        "rainfall_72h_mm": 90.61,
        "soil_moisture": 0.351,
        "model_version": "v1.0",
        "updated_at": "2026-09-16T19:30:24.243348+00:00"
      }
    },
    {
      "type": "Feature",
      "geometry": {
        "type": "Polygon",
        "coordinates": [
          [
            [
              88.825,
              27.375
            ],
            [
              89.075,
              27.375
            ],
            [
              89.075,
              27.625
            ],
            [
              88.825,
              27.625
            ],
            [
              88.825,
              27.375
            ]
          ]
        ]
      },
      "properties": {
        "cell_id": "NER_CELL_2750_8895",
        "latitude": 27.5,
        "longitude": 88.95,
        "state": "Sikkim",
        "elevation_m": 2265.0,
        "slope_deg": 30.5,
        "base_susceptibility": 100,
        "current_risk": 0,
        "risk_level": "VERY_LOW",
        "risk_24h": 1,
        "risk_24h_level": "VERY_LOW",
        "data_quality": "GOOD",
        "rainfall_24h_mm": 52.68,
        "rainfall_72h_mm": 90.61,
        "soil_moisture": 0.355,
        "model_version": "v1.0",
        "updated_at": "2026-09-16T19:30:24.243348+00:00"
      }
    },
    {
      "type": "Feature",
      "geometry": {
        "type": "Polygon",
        "coordinates": [
          [
            [
              88.075,
              27.625
            ],
            [
              88.325,
              27.625
            ],
            [
              88.325,
              27.875
            ],
            [
              88.075,
              27.875
            ],
            [
              88.075,
              27.625
            ]
          ]
        ]
      },
      "properties": {
        "cell_id": "NER_CELL_2775_8820",
        "latitude": 27.75,
        "longitude": 88.2,
        "state": "Sikkim",
        "elevation_m": 2277.5,
        "slope_deg": 31.5,
        "base_susceptibility": 100,
        "current_risk": 0,
        "risk_level": "VERY_LOW",
        "risk_24h": 1,
        "risk_24h_level": "VERY_LOW",
        "data_quality": "GOOD",
        "rainfall_24h_mm": 54.01,
        "rainfall_72h_mm": 92.9,
        "soil_moisture": 0.348,
        "model_version": "v1.0",
        "updated_at": "2026-09-16T19:30:24.243348+00:00"
      }
    },
    {
      "type": "Feature",
      "geometry": {
        "type": "Polygon",
        "coordinates": [
          [
            [
              88.325,
              27.625
            ],
            [
              88.575,
              27.625
            ],
            [
              88.575,
              27.875
            ],
            [
              88.325,
              27.875
            ],
            [
              88.325,
              27.625
            ]
          ]
        ]
      },
      "properties": {
        "cell_id": "NER_CELL_2775_8845",
        "latitude": 27.75,
        "longitude": 88.45,
        "state": "Sikkim",
        "elevation_m": 2327.5,
        "slope_deg": 31.5,
        "base_susceptibility": 100,
        "current_risk": 0,
        "risk_level": "VERY_LOW",
        "risk_24h": 1,
        "risk_24h_level": "VERY_LOW",
        "data_quality": "GOOD",
        "rainfall_24h_mm": 54.01,
        "rainfall_72h_mm": 92.9,
        "soil_moisture": 0.351,
        "model_version": "v1.0",
        "updated_at": "2026-09-16T19:30:24.243348+00:00"
      }
    },
    {
      "type": "Feature",
      "geometry": {
        "type": "Polygon",
        "coordinates": [
          [
            [
              88.575,
              27.625
            ],
            [
              88.825,
              27.625
            ],
            [
              88.825,
              27.875
            ],
            [
              88.575,
              27.875
            ],
            [
              88.575,
              27.625
            ]
          ]
        ]
      },
      "properties": {
        "cell_id": "NER_CELL_2775_8870",
        "latitude": 27.75,
        "longitude": 88.7,
        "state": "Sikkim",
        "elevation_m": 2377.5,
        "slope_deg": 31.5,
        "base_susceptibility": 99,
        "current_risk": 0,
        "risk_level": "VERY_LOW",
        "risk_24h": 1,
        "risk_24h_level": "VERY_LOW",
        "data_quality": "GOOD",
        "rainfall_24h_mm": 54.01,
        "rainfall_72h_mm": 92.9,
        "soil_moisture": 0.354,
        "model_version": "v1.0",
        "updated_at": "2026-09-16T19:30:24.243348+00:00"
      }
    },
    {
      "type": "Feature",
      "geometry": {
        "type": "Polygon",
        "coordinates": [
          [
            [
              88.825,
              27.625
            ],
            [
              89.075,
              27.625
            ],
            [
              89.075,
              27.875
            ],
            [
              88.825,
              27.875
            ],
            [
              88.825,
              27.625
            ]
          ]
        ]
      },
      "properties": {
        "cell_id": "NER_CELL_2775_8895",
        "latitude": 27.75,
        "longitude": 88.95,
        "state": "Sikkim",
        "elevation_m": 2427.5,
        "slope_deg": 31.5,
        "base_susceptibility": 100,
        "current_risk": 0,
        "risk_level": "VERY_LOW",
        "risk_24h": 1,
        "risk_24h_level": "VERY_LOW",
        "data_quality": "GOOD",
        "rainfall_24h_mm": 54.01,
        "rainfall_72h_mm": 92.9,
        "soil_moisture": 0.357,
        "model_version": "v1.0",
        "updated_at": "2026-09-16T19:30:24.243348+00:00"
      }
    },
    {
      "type": "Feature",
      "geometry": {
        "type": "Polygon",
        "coordinates": [
          [
            [
              91.375,
              25.075
            ],
            [
              91.625,
              25.075
            ],
            [
              91.625,
              25.325
            ],
            [
              91.375,
              25.325
            ],
            [
              91.375,
              25.075
            ]
          ]
        ]
      },
      "properties": {
        "cell_id": "NER_CELL_2520_9150",
        "latitude": 25.2,
        "longitude": 91.5,
        "state": "Meghalaya",
        "elevation_m": 1480.0,
        "slope_deg": 25.5,
        "base_susceptibility": 100,
        "current_risk": 0,
        "risk_level": "VERY_LOW",
        "risk_24h": 1,
        "risk_24h_level": "VERY_LOW",
        "data_quality": "GOOD",
        "rainfall_24h_mm": 36.57,
        "rainfall_72h_mm": 62.9,
        "soil_moisture": 0.34,
        "model_version": "v1.0",
        "updated_at": "2026-09-16T19:30:24.608575+00:00"
      }
    },
    {
      "type": "Feature",
      "geometry": {
        "type": "Polygon",
        "coordinates": [
          [
            [
              91.625,
              25.075
            ],
            [
              91.875,
              25.075
            ],
            [
              91.875,
              25.325
            ],
            [
              91.625,
              25.325
            ],
            [
              91.625,
              25.075
            ]
          ]
        ]
      },
      "properties": {
        "cell_id": "NER_CELL_2520_9175",
        "latitude": 25.2,
        "longitude": 91.75,
        "state": "Meghalaya",
        "elevation_m": 1480.0,
        "slope_deg": 26.2,
        "base_susceptibility": 100,
        "current_risk": 0,
        "risk_level": "VERY_LOW",
        "risk_24h": 1,
        "risk_24h_level": "VERY_LOW",
        "data_quality": "GOOD",
        "rainfall_24h_mm": 36.57,
        "rainfall_72h_mm": 62.9,
        "soil_moisture": 0.344,
        "model_version": "v1.0",
        "updated_at": "2026-09-16T19:30:24.608575+00:00"
      }
    },
    {
      "type": "Feature",
      "geometry": {
        "type": "Polygon",
        "coordinates": [
          [
            [
              91.875,
              25.075
            ],
            [
              92.125,
              25.075
            ],
            [
              92.125,
              25.325
            ],
            [
              91.875,
              25.325
            ],
            [
              91.875,
              25.075
            ]
          ]
        ]
      },
      "properties": {
        "cell_id": "NER_CELL_2520_9200",
        "latitude": 25.2,
        "longitude": 92.0,
        "state": "Meghalaya",
        "elevation_m": 1480.0,
        "slope_deg": 27.0,
        "base_susceptibility": 100,
        "current_risk": 0,
        "risk_level": "VERY_LOW",
        "risk_24h": 1,
        "risk_24h_level": "VERY_LOW",
        "data_quality": "GOOD",
        "rainfall_24h_mm": 36.57,
        "rainfall_72h_mm": 62.9,
        "soil_moisture": 0.347,
        "model_version": "v1.0",
        "updated_at": "2026-09-16T19:30:24.608575+00:00"
      }
    },
    {
      "type": "Feature",
      "geometry": {
        "type": "Polygon",
        "coordinates": [
          [
            [
              91.375,
              25.325
            ],
            [
              91.625,
              25.325
            ],
            [
              91.625,
              25.575
            ],
            [
              91.375,
              25.575
            ],
            [
              91.375,
              25.325
            ]
          ]
        ]
      },
      "properties": {
        "cell_id": "NER_CELL_2545_9150",
        "latitude": 25.45,
        "longitude": 91.5,
        "state": "Meghalaya",
        "elevation_m": 1517.5,
        "slope_deg": 25.5,
        "base_susceptibility": 100,
        "current_risk": 0,
        "risk_level": "VERY_LOW",
        "risk_24h": 1,
        "risk_24h_level": "VERY_LOW",
        "data_quality": "GOOD",
        "rainfall_24h_mm": 38.52,
        "rainfall_72h_mm": 66.25,
        "soil_moisture": 0.348,
        "model_version": "v1.0",
        "updated_at": "2026-09-16T19:30:24.608575+00:00"
      }
    },
    {
      "type": "Feature",
      "geometry": {
        "type": "Polygon",
        "coordinates": [
          [
            [
              91.625,
              25.325
            ],
            [
              91.875,
              25.325
            ],
            [
              91.875,
              25.575
            ],
            [
              91.625,
              25.575
            ],
            [
              91.625,
              25.325
            ]
          ]
        ]
      },
      "properties": {
        "cell_id": "NER_CELL_2545_9175",
        "latitude": 25.45,
        "longitude": 91.75,
        "state": "Meghalaya",
        "elevation_m": 1517.5,
        "slope_deg": 26.2,
        "base_susceptibility": 100,
        "current_risk": 0,
        "risk_level": "VERY_LOW",
        "risk_24h": 1,
        "risk_24h_level": "VERY_LOW",
        "data_quality": "GOOD",
        "rainfall_24h_mm": 38.52,
        "rainfall_72h_mm": 66.25,
        "soil_moisture": 0.351,
        "model_version": "v1.0",
        "updated_at": "2026-09-16T19:30:24.608575+00:00"
      }
    },
    {
      "type": "Feature",
      "geometry": {
        "type": "Polygon",
        "coordinates": [
          [
            [
              91.875,
              25.325
            ],
            [
              92.125,
              25.325
            ],
            [
              92.125,
              25.575
            ],
            [
              91.875,
              25.575
            ],
            [
              91.875,
              25.325
            ]
          ]
        ]
      },
      "properties": {
        "cell_id": "NER_CELL_2545_9200",
        "latitude": 25.45,
        "longitude": 92.0,
        "state": "Meghalaya",
        "elevation_m": 1517.5,
        "slope_deg": 27.0,
        "base_susceptibility": 100,
        "current_risk": 0,
        "risk_level": "VERY_LOW",
        "risk_24h": 1,
        "risk_24h_level": "VERY_LOW",
        "data_quality": "GOOD",
        "rainfall_24h_mm": 38.52,
        "rainfall_72h_mm": 66.25,
        "soil_moisture": 0.354,
        "model_version": "v1.0",
        "updated_at": "2026-09-16T19:30:24.608575+00:00"
      }
    },
    {
      "type": "Feature",
      "geometry": {
        "type": "Polygon",
        "coordinates": [
          [
            [
              91.375,
              25.575
            ],
            [
              91.625,
              25.575
            ],
            [
              91.625,
              25.825
            ],
            [
              91.375,
              25.825
            ],
            [
              91.375,
              25.575
            ]
          ]
        ]
      },
      "properties": {
        "cell_id": "NER_CELL_2570_9150",
        "latitude": 25.7,
        "longitude": 91.5,
        "state": "Meghalaya",
        "elevation_m": 1555.0,
        "slope_deg": 25.5,
        "base_susceptibility": 100,
        "current_risk": 0,
        "risk_level": "VERY_LOW",
        "risk_24h": 1,
        "risk_24h_level": "VERY_LOW",
        "data_quality": "GOOD",
        "rainfall_24h_mm": 40.45,
        "rainfall_72h_mm": 69.57,
        "soil_moisture": 0.355,
        "model_version": "v1.0",
        "updated_at": "2026-09-16T19:30:24.608575+00:00"
      }
    },
    {
      "type": "Feature",
      "geometry": {
        "type": "Polygon",
        "coordinates": [
          [
            [
              91.625,
              25.575
            ],
            [
              91.875,
              25.575
            ],
            [
              91.875,
              25.825
            ],
            [
              91.625,
              25.825
            ],
            [
              91.625,
              25.575
            ]
          ]
        ]
      },
      "properties": {
        "cell_id": "NER_CELL_2570_9175",
        "latitude": 25.7,
        "longitude": 91.75,
        "state": "Meghalaya",
        "elevation_m": 1555.0,
        "slope_deg": 26.2,
        "base_susceptibility": 100,
        "current_risk": 0,
        "risk_level": "VERY_LOW",
        "risk_24h": 1,
        "risk_24h_level": "VERY_LOW",
        "data_quality": "GOOD",
        "rainfall_24h_mm": 40.45,
        "rainfall_72h_mm": 69.57,
        "soil_moisture": 0.358,
        "model_version": "v1.0",
        "updated_at": "2026-09-16T19:30:24.608575+00:00"
      }
    },
    {
      "type": "Feature",
      "geometry": {
        "type": "Polygon",
        "coordinates": [
          [
            [
              91.875,
              25.575
            ],
            [
              92.125,
              25.575
            ],
            [
              92.125,
              25.825
            ],
            [
              91.875,
              25.825
            ],
            [
              91.875,
              25.575
            ]
          ]
        ]
      },
      "properties": {
        "cell_id": "NER_CELL_2570_9200",
        "latitude": 25.7,
        "longitude": 92.0,
        "state": "Meghalaya",
        "elevation_m": 1555.0,
        "slope_deg": 27.0,
        "base_susceptibility": 100,
        "current_risk": 0,
        "risk_level": "VERY_LOW",
        "risk_24h": 1,
        "risk_24h_level": "VERY_LOW",
        "data_quality": "GOOD",
        "rainfall_24h_mm": 40.45,
        "rainfall_72h_mm": 69.57,
        "soil_moisture": 0.362,
        "model_version": "v1.0",
        "updated_at": "2026-09-16T19:30:24.608575+00:00"
      }
    },
    {
      "type": "Feature",
      "geometry": {
        "type": "Polygon",
        "coordinates": [
          [
            [
              92.275,
              23.275
            ],
            [
              92.525,
              23.275
            ],
            [
              92.525,
              23.525
            ],
            [
              92.275,
              23.525
            ],
            [
              92.275,
              23.275
            ]
          ]
        ]
      },
      "properties": {
        "cell_id": "NER_CELL_2340_9240",
        "latitude": 23.4,
        "longitude": 92.4,
        "state": "Mizoram",
        "elevation_m": 1094.0,
        "slope_deg": 26.0,
        "base_susceptibility": 100,
        "current_risk": 0,
        "risk_level": "VERY_LOW",
        "risk_24h": 1,
        "risk_24h_level": "VERY_LOW",
        "data_quality": "GOOD",
        "rainfall_24h_mm": 22.96,
        "rainfall_72h_mm": 39.49,
        "soil_moisture": 0.304,
        "model_version": "v1.0",
        "updated_at": "2026-09-16T19:30:24.795249+00:00"
      }
    },
    {
      "type": "Feature",
      "geometry": {
        "type": "Polygon",
        "coordinates": [
          [
            [
              92.525,
              23.275
            ],
            [
              92.775,
              23.275
            ],
            [
              92.775,
              23.525
            ],
            [
              92.525,
              23.525
            ],
            [
              92.525,
              23.275
            ]
          ]
        ]
      },
      "properties": {
        "cell_id": "NER_CELL_2340_9265",
        "latitude": 23.4,
        "longitude": 92.65,
        "state": "Mizoram",
        "elevation_m": 1094.0,
        "slope_deg": 26.0,
        "base_susceptibility": 100,
        "current_risk": 0,
        "risk_level": "VERY_LOW",
        "risk_24h": 1,
        "risk_24h_level": "VERY_LOW",
        "data_quality": "GOOD",
        "rainfall_24h_mm": 22.96,
        "rainfall_72h_mm": 39.49,
        "soil_moisture": 0.306,
        "model_version": "v1.0",
        "updated_at": "2026-09-16T19:30:24.795249+00:00"
      }
    },
    {
      "type": "Feature",
      "geometry": {
        "type": "Polygon",
        "coordinates": [
          [
            [
              92.775,
              23.275
            ],
            [
              93.025,
              23.275
            ],
            [
              93.025,
              23.525
            ],
            [
              92.775,
              23.525
            ],
            [
              92.775,
              23.275
            ]
          ]
        ]
      },
      "properties": {
        "cell_id": "NER_CELL_2340_9290",
        "latitude": 23.4,
        "longitude": 92.9,
        "state": "Mizoram",
        "elevation_m": 1094.0,
        "slope_deg": 26.0,
        "base_susceptibility": 100,
        "current_risk": 0,
        "risk_level": "VERY_LOW",
        "risk_24h": 1,
        "risk_24h_level": "VERY_LOW",
        "data_quality": "GOOD",
        "rainfall_24h_mm": 22.96,
        "rainfall_72h_mm": 39.49,
        "soil_moisture": 0.309,
        "model_version": "v1.0",
        "updated_at": "2026-09-16T19:30:24.795249+00:00"
      }
    },
    {
      "type": "Feature",
      "geometry": {
        "type": "Polygon",
        "coordinates": [
          [
            [
              92.275,
              23.525
            ],
            [
              92.525,
              23.525
            ],
            [
              92.525,
              23.775
            ],
            [
              92.275,
              23.775
            ],
            [
              92.275,
              23.525
            ]
          ]
        ]
      },
      "properties": {
        "cell_id": "NER_CELL_2365_9240",
        "latitude": 23.65,
        "longitude": 92.4,
        "state": "Mizoram",
        "elevation_m": 1121.5,
        "slope_deg": 26.0,
        "base_susceptibility": 100,
        "current_risk": 0,
        "risk_level": "VERY_LOW",
        "risk_24h": 1,
        "risk_24h_level": "VERY_LOW",
        "data_quality": "GOOD",
        "rainfall_24h_mm": 24.71,
        "rainfall_72h_mm": 42.5,
        "soil_moisture": 0.309,
        "model_version": "v1.0",
        "updated_at": "2026-09-16T19:30:24.795249+00:00"
      }
    },
    {
      "type": "Feature",
      "geometry": {
        "type": "Polygon",
        "coordinates": [
          [
            [
              92.525,
              23.525
            ],
            [
              92.775,
              23.525
            ],
            [
              92.775,
              23.775
            ],
            [
              92.525,
              23.775
            ],
            [
              92.525,
              23.525
            ]
          ]
        ]
      },
      "properties": {
        "cell_id": "NER_CELL_2365_9265",
        "latitude": 23.65,
        "longitude": 92.65,
        "state": "Mizoram",
        "elevation_m": 1121.5,
        "slope_deg": 26.0,
        "base_susceptibility": 100,
        "current_risk": 0,
        "risk_level": "VERY_LOW",
        "risk_24h": 1,
        "risk_24h_level": "VERY_LOW",
        "data_quality": "GOOD",
        "rainfall_24h_mm": 24.71,
        "rainfall_72h_mm": 42.5,
        "soil_moisture": 0.312,
        "model_version": "v1.0",
        "updated_at": "2026-09-16T19:30:24.795249+00:00"
      }
    },
    {
      "type": "Feature",
      "geometry": {
        "type": "Polygon",
        "coordinates": [
          [
            [
              92.775,
              23.525
            ],
            [
              93.025,
              23.525
            ],
            [
              93.025,
              23.775
            ],
            [
              92.775,
              23.775
            ],
            [
              92.775,
              23.525
            ]
          ]
        ]
      },
      "properties": {
        "cell_id": "NER_CELL_2365_9290",
        "latitude": 23.65,
        "longitude": 92.9,
        "state": "Mizoram",
        "elevation_m": 1121.5,
        "slope_deg": 26.0,
        "base_susceptibility": 100,
        "current_risk": 0,
        "risk_level": "VERY_LOW",
        "risk_24h": 1,
        "risk_24h_level": "VERY_LOW",
        "data_quality": "GOOD",
        "rainfall_24h_mm": 24.71,
        "rainfall_72h_mm": 42.5,
        "soil_moisture": 0.314,
        "model_version": "v1.0",
        "updated_at": "2026-09-16T19:30:24.795249+00:00"
      }
    },
    {
      "type": "Feature",
      "geometry": {
        "type": "Polygon",
        "coordinates": [
          [
            [
              92.275,
              23.775
            ],
            [
              92.525,
              23.775
            ],
            [
              92.525,
              24.025
            ],
            [
              92.275,
              24.025
            ],
            [
              92.275,
              23.775
            ]
          ]
        ]
      },
      "properties": {
        "cell_id": "NER_CELL_2390_9240",
        "latitude": 23.9,
        "longitude": 92.4,
        "state": "Mizoram",
        "elevation_m": 1149.0,
        "slope_deg": 26.0,
        "base_susceptibility": 100,
        "current_risk": 0,
        "risk_level": "VERY_LOW",
        "risk_24h": 1,
        "risk_24h_level": "VERY_LOW",
        "data_quality": "GOOD",
        "rainfall_24h_mm": 26.53,
        "rainfall_72h_mm": 45.63,
        "soil_moisture": 0.315,
        "model_version": "v1.0",
        "updated_at": "2026-09-16T19:30:24.795249+00:00"
      }
    },
    {
      "type": "Feature",
      "geometry": {
        "type": "Polygon",
        "coordinates": [
          [
            [
              92.525,
              23.775
            ],
            [
              92.775,
              23.775
            ],
            [
              92.775,
              24.025
            ],
            [
              92.525,
              24.025
            ],
            [
              92.525,
              23.775
            ]
          ]
        ]
      },
      "properties": {
        "cell_id": "NER_CELL_2390_9265",
        "latitude": 23.9,
        "longitude": 92.65,
        "state": "Mizoram",
        "elevation_m": 1149.0,
        "slope_deg": 26.0,
        "base_susceptibility": 100,
        "current_risk": 0,
        "risk_level": "VERY_LOW",
        "risk_24h": 1,
        "risk_24h_level": "VERY_LOW",
        "data_quality": "GOOD",
        "rainfall_24h_mm": 26.53,
        "rainfall_72h_mm": 45.63,
        "soil_moisture": 0.317,
        "model_version": "v1.0",
        "updated_at": "2026-09-16T19:30:24.795249+00:00"
      }
    },
    {
      "type": "Feature",
      "geometry": {
        "type": "Polygon",
        "coordinates": [
          [
            [
              92.775,
              23.775
            ],
            [
              93.025,
              23.775
            ],
            [
              93.025,
              24.025
            ],
            [
              92.775,
              24.025
            ],
            [
              92.775,
              23.775
            ]
          ]
        ]
      },
      "properties": {
        "cell_id": "NER_CELL_2390_9290",
        "latitude": 23.9,
        "longitude": 92.9,
        "state": "Mizoram",
        "elevation_m": 1149.0,
        "slope_deg": 26.0,
        "base_susceptibility": 100,
        "current_risk": 0,
        "risk_level": "VERY_LOW",
        "risk_24h": 1,
        "risk_24h_level": "VERY_LOW",
        "data_quality": "GOOD",
        "rainfall_24h_mm": 26.53,
        "rainfall_72h_mm": 45.63,
        "soil_moisture": 0.32,
        "model_version": "v1.0",
        "updated_at": "2026-09-16T19:30:24.795249+00:00"
      }
    },
    {
      "type": "Feature",
      "geometry": {
        "type": "Polygon",
        "coordinates": [
          [
            [
              92.275,
              24.025
            ],
            [
              92.525,
              24.025
            ],
            [
              92.525,
              24.275
            ],
            [
              92.275,
              24.275
            ],
            [
              92.275,
              24.025
            ]
          ]
        ]
      },
      "properties": {
        "cell_id": "NER_CELL_2415_9240",
        "latitude": 24.15,
        "longitude": 92.4,
        "state": "Mizoram",
        "elevation_m": 1176.5,
        "slope_deg": 26.0,
        "base_susceptibility": 100,
        "current_risk": 0,
        "risk_level": "VERY_LOW",
        "risk_24h": 1,
        "risk_24h_level": "VERY_LOW",
        "data_quality": "GOOD",
        "rainfall_24h_mm": 28.4,
        "rainfall_72h_mm": 48.85,
        "soil_moisture": 0.321,
        "model_version": "v1.0",
        "updated_at": "2026-09-16T19:30:24.795249+00:00"
      }
    },
    {
      "type": "Feature",
      "geometry": {
        "type": "Polygon",
        "coordinates": [
          [
            [
              92.525,
              24.025
            ],
            [
              92.775,
              24.025
            ],
            [
              92.775,
              24.275
            ],
            [
              92.525,
              24.275
            ],
            [
              92.525,
              24.025
            ]
          ]
        ]
      },
      "properties": {
        "cell_id": "NER_CELL_2415_9265",
        "latitude": 24.15,
        "longitude": 92.65,
        "state": "Mizoram",
        "elevation_m": 1176.5,
        "slope_deg": 26.0,
        "base_susceptibility": 100,
        "current_risk": 0,
        "risk_level": "VERY_LOW",
        "risk_24h": 1,
        "risk_24h_level": "VERY_LOW",
        "data_quality": "GOOD",
        "rainfall_24h_mm": 28.4,
        "rainfall_72h_mm": 48.85,
        "soil_moisture": 0.324,
        "model_version": "v1.0",
        "updated_at": "2026-09-16T19:30:24.795249+00:00"
      }
    },
    {
      "type": "Feature",
      "geometry": {
        "type": "Polygon",
        "coordinates": [
          [
            [
              92.775,
              24.025
            ],
            [
              93.025,
              24.025
            ],
            [
              93.025,
              24.275
            ],
            [
              92.775,
              24.275
            ],
            [
              92.775,
              24.025
            ]
          ]
        ]
      },
      "properties": {
        "cell_id": "NER_CELL_2415_9290",
        "latitude": 24.15,
        "longitude": 92.9,
        "state": "Mizoram",
        "elevation_m": 1176.5,
        "slope_deg": 26.0,
        "base_susceptibility": 100,
        "current_risk": 0,
        "risk_level": "VERY_LOW",
        "risk_24h": 1,
        "risk_24h_level": "VERY_LOW",
        "data_quality": "GOOD",
        "rainfall_24h_mm": 28.4,
        "rainfall_72h_mm": 48.85,
        "soil_moisture": 0.326,
        "model_version": "v1.0",
        "updated_at": "2026-09-16T19:30:24.795249+00:00"
      }
    },
    {
      "type": "Feature",
      "geometry": {
        "type": "Polygon",
        "coordinates": [
          [
            [
              91.675,
              27.075
            ],
            [
              91.925,
              27.075
            ],
            [
              91.925,
              27.325
            ],
            [
              91.675,
              27.325
            ],
            [
              91.675,
              27.075
            ]
          ]
        ]
      },
      "properties": {
        "cell_id": "NER_CELL_2720_9180",
        "latitude": 27.2,
        "longitude": 91.8,
        "state": "Arunachal Pradesh",
        "elevation_m": 2250.0,
        "slope_deg": 32.5,
        "base_susceptibility": 100,
        "current_risk": 0,
        "risk_level": "VERY_LOW",
        "risk_24h": 1,
        "risk_24h_level": "VERY_LOW",
        "data_quality": "GOOD",
        "rainfall_24h_mm": 50.94,
        "rainfall_72h_mm": 87.62,
        "soil_moisture": 0.394,
        "model_version": "v1.0",
        "updated_at": "2026-09-16T19:30:25.042833+00:00"
      }
    },
    {
      "type": "Feature",
      "geometry": {
        "type": "Polygon",
        "coordinates": [
          [
            [
              91.925,
              27.075
            ],
            [
              92.175,
              27.075
            ],
            [
              92.175,
              27.325
            ],
            [
              91.925,
              27.325
            ],
            [
              91.925,
              27.075
            ]
          ]
        ]
      },
      "properties": {
        "cell_id": "NER_CELL_2720_9205",
        "latitude": 27.2,
        "longitude": 92.05,
        "state": "Arunachal Pradesh",
        "elevation_m": 2250.0,
        "slope_deg": 32.5,
        "base_susceptibility": 100,
        "current_risk": 0,
        "risk_level": "VERY_LOW",
        "risk_24h": 1,
        "risk_24h_level": "VERY_LOW",
        "data_quality": "GOOD",
        "rainfall_24h_mm": 50.94,
        "rainfall_72h_mm": 87.62,
        "soil_moisture": 0.397,
        "model_version": "v1.0",
        "updated_at": "2026-09-16T19:30:25.042833+00:00"
      }
    },
    {
      "type": "Feature",
      "geometry": {
        "type": "Polygon",
        "coordinates": [
          [
            [
              92.175,
              27.075
            ],
            [
              92.425,
              27.075
            ],
            [
              92.425,
              27.325
            ],
            [
              92.175,
              27.325
            ],
            [
              92.175,
              27.075
            ]
          ]
        ]
      },
      "properties": {
        "cell_id": "NER_CELL_2720_9230",
        "latitude": 27.2,
        "longitude": 92.3,
        "state": "Arunachal Pradesh",
        "elevation_m": 2250.0,
        "slope_deg": 32.5,
        "base_susceptibility": 100,
        "current_risk": 0,
        "risk_level": "VERY_LOW",
        "risk_24h": 1,
        "risk_24h_level": "VERY_LOW",
        "data_quality": "GOOD",
        "rainfall_24h_mm": 50.94,
        "rainfall_72h_mm": 87.62,
        "soil_moisture": 0.4,
        "model_version": "v1.0",
        "updated_at": "2026-09-16T19:30:25.042833+00:00"
      }
    },
    {
      "type": "Feature",
      "geometry": {
        "type": "Polygon",
        "coordinates": [
          [
            [
              92.425,
              27.075
            ],
            [
              92.675,
              27.075
            ],
            [
              92.675,
              27.325
            ],
            [
              92.425,
              27.325
            ],
            [
              92.425,
              27.075
            ]
          ]
        ]
      },
      "properties": {
        "cell_id": "NER_CELL_2720_9255",
        "latitude": 27.2,
        "longitude": 92.55,
        "state": "Arunachal Pradesh",
        "elevation_m": 2250.0,
        "slope_deg": 32.5,
        "base_susceptibility": 100,
        "current_risk": 0,
        "risk_level": "VERY_LOW",
        "risk_24h": 1,
        "risk_24h_level": "VERY_LOW",
        "data_quality": "GOOD",
        "rainfall_24h_mm": 50.94,
        "rainfall_72h_mm": 87.62,
        "soil_moisture": 0.403,
        "model_version": "v1.0",
        "updated_at": "2026-09-16T19:30:25.042833+00:00"
      }
    },
    {
      "type": "Feature",
      "geometry": {
        "type": "Polygon",
        "coordinates": [
          [
            [
              91.675,
              27.325
            ],
            [
              91.925,
              27.325
            ],
            [
              91.925,
              27.575
            ],
            [
              91.675,
              27.575
            ],
            [
              91.675,
              27.325
            ]
          ]
        ]
      },
      "properties": {
        "cell_id": "NER_CELL_2745_9180",
        "latitude": 27.45,
        "longitude": 91.8,
        "state": "Arunachal Pradesh",
        "elevation_m": 2375.0,
        "slope_deg": 32.5,
        "base_susceptibility": 100,
        "current_risk": 0,
        "risk_level": "VERY_LOW",
        "risk_24h": 1,
        "risk_24h_level": "VERY_LOW",
        "data_quality": "GOOD",
        "rainfall_24h_mm": 52.4,
        "rainfall_72h_mm": 90.13,
        "soil_moisture": 0.397,
        "model_version": "v1.0",
        "updated_at": "2026-09-16T19:30:25.042833+00:00"
      }
    },
    {
      "type": "Feature",
      "geometry": {
        "type": "Polygon",
        "coordinates": [
          [
            [
              91.925,
              27.325
            ],
            [
              92.175,
              27.325
            ],
            [
              92.175,
              27.575
            ],
            [
              91.925,
              27.575
            ],
            [
              91.925,
              27.325
            ]
          ]
        ]
      },
      "properties": {
        "cell_id": "NER_CELL_2745_9205",
        "latitude": 27.45,
        "longitude": 92.05,
        "state": "Arunachal Pradesh",
        "elevation_m": 2375.0,
        "slope_deg": 32.5,
        "base_susceptibility": 100,
        "current_risk": 0,
        "risk_level": "VERY_LOW",
        "risk_24h": 1,
        "risk_24h_level": "VERY_LOW",
        "data_quality": "GOOD",
        "rainfall_24h_mm": 52.4,
        "rainfall_72h_mm": 90.13,
        "soil_moisture": 0.4,
        "model_version": "v1.0",
        "updated_at": "2026-09-16T19:30:25.042833+00:00"
      }
    },
    {
      "type": "Feature",
      "geometry": {
        "type": "Polygon",
        "coordinates": [
          [
            [
              92.175,
              27.325
            ],
            [
              92.425,
              27.325
            ],
            [
              92.425,
              27.575
            ],
            [
              92.175,
              27.575
            ],
            [
              92.175,
              27.325
            ]
          ]
        ]
      },
      "properties": {
        "cell_id": "NER_CELL_2745_9230",
        "latitude": 27.45,
        "longitude": 92.3,
        "state": "Arunachal Pradesh",
        "elevation_m": 2375.0,
        "slope_deg": 32.5,
        "base_susceptibility": 100,
        "current_risk": 0,
        "risk_level": "VERY_LOW",
        "risk_24h": 1,
        "risk_24h_level": "VERY_LOW",
        "data_quality": "GOOD",
        "rainfall_24h_mm": 52.4,
        "rainfall_72h_mm": 90.13,
        "soil_moisture": 0.403,
        "model_version": "v1.0",
        "updated_at": "2026-09-16T19:30:25.042833+00:00"
      }
    },
    {
      "type": "Feature",
      "geometry": {
        "type": "Polygon",
        "coordinates": [
          [
            [
              92.425,
              27.325
            ],
            [
              92.675,
              27.325
            ],
            [
              92.675,
              27.575
            ],
            [
              92.425,
              27.575
            ],
            [
              92.425,
              27.325
            ]
          ]
        ]
      },
      "properties": {
        "cell_id": "NER_CELL_2745_9255",
        "latitude": 27.45,
        "longitude": 92.55,
        "state": "Arunachal Pradesh",
        "elevation_m": 2375.0,
        "slope_deg": 32.5,
        "base_susceptibility": 100,
        "current_risk": 0,
        "risk_level": "VERY_LOW",
        "risk_24h": 1,
        "risk_24h_level": "VERY_LOW",
        "data_quality": "GOOD",
        "rainfall_24h_mm": 52.4,
        "rainfall_72h_mm": 90.13,
        "soil_moisture": 0.406,
        "model_version": "v1.0",
        "updated_at": "2026-09-16T19:30:25.042833+00:00"
      }
    },
    {
      "type": "Feature",
      "geometry": {
        "type": "Polygon",
        "coordinates": [
          [
            [
              91.675,
              27.575
            ],
            [
              91.925,
              27.575
            ],
            [
              91.925,
              27.825
            ],
            [
              91.675,
              27.825
            ],
            [
              91.675,
              27.575
            ]
          ]
        ]
      },
      "properties": {
        "cell_id": "NER_CELL_2770_9180",
        "latitude": 27.7,
        "longitude": 91.8,
        "state": "Arunachal Pradesh",
        "elevation_m": 2500.0,
        "slope_deg": 32.5,
        "base_susceptibility": 100,
        "current_risk": 0,
        "risk_level": "VERY_LOW",
        "risk_24h": 1,
        "risk_24h_level": "VERY_LOW",
        "data_quality": "GOOD",
        "rainfall_24h_mm": 53.75,
        "rainfall_72h_mm": 92.45,
        "soil_moisture": 0.4,
        "model_version": "v1.0",
        "updated_at": "2026-09-16T19:30:25.042833+00:00"
      }
    },
    {
      "type": "Feature",
      "geometry": {
        "type": "Polygon",
        "coordinates": [
          [
            [
              91.925,
              27.575
            ],
            [
              92.175,
              27.575
            ],
            [
              92.175,
              27.825
            ],
            [
              91.925,
              27.825
            ],
            [
              91.925,
              27.575
            ]
          ]
        ]
      },
      "properties": {
        "cell_id": "NER_CELL_2770_9205",
        "latitude": 27.7,
        "longitude": 92.05,
        "state": "Arunachal Pradesh",
        "elevation_m": 2500.0,
        "slope_deg": 32.5,
        "base_susceptibility": 100,
        "current_risk": 0,
        "risk_level": "VERY_LOW",
        "risk_24h": 1,
        "risk_24h_level": "VERY_LOW",
        "data_quality": "GOOD",
        "rainfall_24h_mm": 53.75,
        "rainfall_72h_mm": 92.45,
        "soil_moisture": 0.403,
        "model_version": "v1.0",
        "updated_at": "2026-09-16T19:30:25.042833+00:00"
      }
    },
    {
      "type": "Feature",
      "geometry": {
        "type": "Polygon",
        "coordinates": [
          [
            [
              92.175,
              27.575
            ],
            [
              92.425,
              27.575
            ],
            [
              92.425,
              27.825
            ],
            [
              92.175,
              27.825
            ],
            [
              92.175,
              27.575
            ]
          ]
        ]
      },
      "properties": {
        "cell_id": "NER_CELL_2770_9230",
        "latitude": 27.7,
        "longitude": 92.3,
        "state": "Arunachal Pradesh",
        "elevation_m": 2500.0,
        "slope_deg": 32.5,
        "base_susceptibility": 100,
        "current_risk": 0,
        "risk_level": "VERY_LOW",
        "risk_24h": 1,
        "risk_24h_level": "VERY_LOW",
        "data_quality": "GOOD",
        "rainfall_24h_mm": 53.75,
        "rainfall_72h_mm": 92.45,
        "soil_moisture": 0.406,
        "model_version": "v1.0",
        "updated_at": "2026-09-16T19:30:25.042833+00:00"
      }
    },
    {
      "type": "Feature",
      "geometry": {
        "type": "Polygon",
        "coordinates": [
          [
            [
              92.425,
              27.575
            ],
            [
              92.675,
              27.575
            ],
            [
              92.675,
              27.825
            ],
            [
              92.425,
              27.825
            ],
            [
              92.425,
              27.575
            ]
          ]
        ]
      },
      "properties": {
        "cell_id": "NER_CELL_2770_9255",
        "latitude": 27.7,
        "longitude": 92.55,
        "state": "Arunachal Pradesh",
        "elevation_m": 2500.0,
        "slope_deg": 32.5,
        "base_susceptibility": 100,
        "current_risk": 0,
        "risk_level": "VERY_LOW",
        "risk_24h": 1,
        "risk_24h_level": "VERY_LOW",
        "data_quality": "GOOD",
        "rainfall_24h_mm": 53.75,
        "rainfall_72h_mm": 92.45,
        "soil_moisture": 0.409,
        "model_version": "v1.0",
        "updated_at": "2026-09-16T19:30:25.042833+00:00"
      }
    },
    {
      "type": "Feature",
      "geometry": {
        "type": "Polygon",
        "coordinates": [
          [
            [
              93.675,
              25.275
            ],
            [
              93.925,
              25.275
            ],
            [
              93.925,
              25.525
            ],
            [
              93.675,
              25.525
            ],
            [
              93.675,
              25.275
            ]
          ]
        ]
      },
      "properties": {
        "cell_id": "NER_CELL_2540_9380",
        "latitude": 25.4,
        "longitude": 93.8,
        "state": "Nagaland",
        "elevation_m": 1488.0,
        "slope_deg": 27.0,
        "base_susceptibility": 100,
        "current_risk": 0,
        "risk_level": "VERY_LOW",
        "risk_24h": 1,
        "risk_24h_level": "VERY_LOW",
        "data_quality": "GOOD",
        "rainfall_24h_mm": 38.13,
        "rainfall_72h_mm": 65.58,
        "soil_moisture": 0.367,
        "model_version": "v1.0",
        "updated_at": "2026-09-16T19:30:25.310744+00:00"
      }
    },
    {
      "type": "Feature",
      "geometry": {
        "type": "Polygon",
        "coordinates": [
          [
            [
              93.925,
              25.275
            ],
            [
              94.175,
              25.275
            ],
            [
              94.175,
              25.525
            ],
            [
              93.925,
              25.525
            ],
            [
              93.925,
              25.275
            ]
          ]
        ]
      },
      "properties": {
        "cell_id": "NER_CELL_2540_9405",
        "latitude": 25.4,
        "longitude": 94.05,
        "state": "Nagaland",
        "elevation_m": 1488.0,
        "slope_deg": 27.0,
        "base_susceptibility": 100,
        "current_risk": 0,
        "risk_level": "VERY_LOW",
        "risk_24h": 1,
        "risk_24h_level": "VERY_LOW",
        "data_quality": "GOOD",
        "rainfall_24h_mm": 38.13,
        "rainfall_72h_mm": 65.58,
        "soil_moisture": 0.368,
        "model_version": "v1.0",
        "updated_at": "2026-09-16T19:30:25.310744+00:00"
      }
    },
    {
      "type": "Feature",
      "geometry": {
        "type": "Polygon",
        "coordinates": [
          [
            [
              94.175,
              25.275
            ],
            [
              94.425,
              25.275
            ],
            [
              94.425,
              25.525
            ],
            [
              94.175,
              25.525
            ],
            [
              94.175,
              25.275
            ]
          ]
        ]
      },
      "properties": {
        "cell_id": "NER_CELL_2540_9430",
        "latitude": 25.4,
        "longitude": 94.3,
        "state": "Nagaland",
        "elevation_m": 1488.0,
        "slope_deg": 27.0,
        "base_susceptibility": 100,
        "current_risk": 0,
        "risk_level": "VERY_LOW",
        "risk_24h": 1,
        "risk_24h_level": "VERY_LOW",
        "data_quality": "GOOD",
        "rainfall_24h_mm": 38.13,
        "rainfall_72h_mm": 65.58,
        "soil_moisture": 0.368,
        "model_version": "v1.0",
        "updated_at": "2026-09-16T19:30:25.310744+00:00"
      }
    },
    {
      "type": "Feature",
      "geometry": {
        "type": "Polygon",
        "coordinates": [
          [
            [
              93.675,
              25.525
            ],
            [
              93.925,
              25.525
            ],
            [
              93.925,
              25.775
            ],
            [
              93.675,
              25.775
            ],
            [
              93.675,
              25.525
            ]
          ]
        ]
      },
      "properties": {
        "cell_id": "NER_CELL_2565_9380",
        "latitude": 25.65,
        "longitude": 93.8,
        "state": "Nagaland",
        "elevation_m": 1518.0,
        "slope_deg": 27.0,
        "base_susceptibility": 100,
        "current_risk": 0,
        "risk_level": "VERY_LOW",
        "risk_24h": 1,
        "risk_24h_level": "VERY_LOW",
        "data_quality": "GOOD",
        "rainfall_24h_mm": 40.07,
        "rainfall_72h_mm": 68.92,
        "soil_moisture": 0.375,
        "model_version": "v1.0",
        "updated_at": "2026-09-16T19:30:25.310744+00:00"
      }
    },
    {
      "type": "Feature",
      "geometry": {
        "type": "Polygon",
        "coordinates": [
          [
            [
              93.925,
              25.525
            ],
            [
              94.175,
              25.525
            ],
            [
              94.175,
              25.775
            ],
            [
              93.925,
              25.775
            ],
            [
              93.925,
              25.525
            ]
          ]
        ]
      },
      "properties": {
        "cell_id": "NER_CELL_2565_9405",
        "latitude": 25.65,
        "longitude": 94.05,
        "state": "Nagaland",
        "elevation_m": 1518.0,
        "slope_deg": 27.0,
        "base_susceptibility": 100,
        "current_risk": 0,
        "risk_level": "VERY_LOW",
        "risk_24h": 1,
        "risk_24h_level": "VERY_LOW",
        "data_quality": "GOOD",
        "rainfall_24h_mm": 40.07,
        "rainfall_72h_mm": 68.92,
        "soil_moisture": 0.375,
        "model_version": "v1.0",
        "updated_at": "2026-09-16T19:30:25.310744+00:00"
      }
    },
    {
      "type": "Feature",
      "geometry": {
        "type": "Polygon",
        "coordinates": [
          [
            [
              94.175,
              25.525
            ],
            [
              94.425,
              25.525
            ],
            [
              94.425,
              25.775
            ],
            [
              94.175,
              25.775
            ],
            [
              94.175,
              25.525
            ]
          ]
        ]
      },
      "properties": {
        "cell_id": "NER_CELL_2565_9430",
        "latitude": 25.65,
        "longitude": 94.3,
        "state": "Nagaland",
        "elevation_m": 1518.0,
        "slope_deg": 27.0,
        "base_susceptibility": 100,
        "current_risk": 0,
        "risk_level": "VERY_LOW",
        "risk_24h": 1,
        "risk_24h_level": "VERY_LOW",
        "data_quality": "GOOD",
        "rainfall_24h_mm": 40.07,
        "rainfall_72h_mm": 68.92,
        "soil_moisture": 0.375,
        "model_version": "v1.0",
        "updated_at": "2026-09-16T19:30:25.310744+00:00"
      }
    },
    {
      "type": "Feature",
      "geometry": {
        "type": "Polygon",
        "coordinates": [
          [
            [
              93.675,
              25.775
            ],
            [
              93.925,
              25.775
            ],
            [
              93.925,
              26.025
            ],
            [
              93.675,
              26.025
            ],
            [
              93.675,
              25.775
            ]
          ]
        ]
      },
      "properties": {
        "cell_id": "NER_CELL_2590_9380",
        "latitude": 25.9,
        "longitude": 93.8,
        "state": "Nagaland",
        "elevation_m": 1548.0,
        "slope_deg": 27.0,
        "base_susceptibility": 100,
        "current_risk": 0,
        "risk_level": "VERY_LOW",
        "risk_24h": 1,
        "risk_24h_level": "VERY_LOW",
        "data_quality": "GOOD",
        "rainfall_24h_mm": 41.97,
        "rainfall_72h_mm": 72.19,
        "soil_moisture": 0.382,
        "model_version": "v1.0",
        "updated_at": "2026-09-16T19:30:25.310744+00:00"
      }
    },
    {
      "type": "Feature",
      "geometry": {
        "type": "Polygon",
        "coordinates": [
          [
            [
              93.925,
              25.775
            ],
            [
              94.175,
              25.775
            ],
            [
              94.175,
              26.025
            ],
            [
              93.925,
              26.025
            ],
            [
              93.925,
              25.775
            ]
          ]
        ]
      },
      "properties": {
        "cell_id": "NER_CELL_2590_9405",
        "latitude": 25.9,
        "longitude": 94.05,
        "state": "Nagaland",
        "elevation_m": 1548.0,
        "slope_deg": 27.0,
        "base_susceptibility": 100,
        "current_risk": 0,
        "risk_level": "VERY_LOW",
        "risk_24h": 1,
        "risk_24h_level": "VERY_LOW",
        "data_quality": "GOOD",
        "rainfall_24h_mm": 41.97,
        "rainfall_72h_mm": 72.19,
        "soil_moisture": 0.382,
        "model_version": "v1.0",
        "updated_at": "2026-09-16T19:30:25.310744+00:00"
      }
    },
    {
      "type": "Feature",
      "geometry": {
        "type": "Polygon",
        "coordinates": [
          [
            [
              94.175,
              25.775
            ],
            [
              94.425,
              25.775
            ],
            [
              94.425,
              26.025
            ],
            [
              94.175,
              26.025
            ],
            [
              94.175,
              25.775
            ]
          ]
        ]
      },
      "properties": {
        "cell_id": "NER_CELL_2590_9430",
        "latitude": 25.9,
        "longitude": 94.3,
        "state": "Nagaland",
        "elevation_m": 1548.0,
        "slope_deg": 27.0,
        "base_susceptibility": 100,
        "current_risk": 0,
        "risk_level": "VERY_LOW",
        "risk_24h": 1,
        "risk_24h_level": "VERY_LOW",
        "data_quality": "GOOD",
        "rainfall_24h_mm": 41.97,
        "rainfall_72h_mm": 72.19,
        "soil_moisture": 0.382,
        "model_version": "v1.0",
        "updated_at": "2026-09-16T19:30:25.310744+00:00"
      }
    },
    {
      "type": "Feature",
      "geometry": {
        "type": "Polygon",
        "coordinates": [
          [
            [
              93.475,
              24.475
            ],
            [
              93.725,
              24.475
            ],
            [
              93.725,
              24.725
            ],
            [
              93.475,
              24.725
            ],
            [
              93.475,
              24.475
            ]
          ]
        ]
      },
      "properties": {
        "cell_id": "NER_CELL_2460_9360",
        "latitude": 24.6,
        "longitude": 93.6,
        "state": "Manipur",
        "elevation_m": 1240.0,
        "slope_deg": 25.0,
        "base_susceptibility": 100,
        "current_risk": 0,
        "risk_level": "VERY_LOW",
        "risk_24h": 1,
        "risk_24h_level": "VERY_LOW",
        "data_quality": "GOOD",
        "rainfall_24h_mm": 31.87,
        "rainfall_72h_mm": 54.82,
        "soil_moisture": 0.343,
        "model_version": "v1.0",
        "updated_at": "2026-09-16T19:30:25.498016+00:00"
      }
    },
    {
      "type": "Feature",
      "geometry": {
        "type": "Polygon",
        "coordinates": [
          [
            [
              93.725,
              24.475
            ],
            [
              93.975,
              24.475
            ],
            [
              93.975,
              24.725
            ],
            [
              93.725,
              24.725
            ],
            [
              93.725,
              24.475
            ]
          ]
        ]
      },
      "properties": {
        "cell_id": "NER_CELL_2460_9385",
        "latitude": 24.6,
        "longitude": 93.85,
        "state": "Manipur",
        "elevation_m": 1240.0,
        "slope_deg": 25.0,
        "base_susceptibility": 100,
        "current_risk": 0,
        "risk_level": "VERY_LOW",
        "risk_24h": 1,
        "risk_24h_level": "VERY_LOW",
        "data_quality": "GOOD",
        "rainfall_24h_mm": 31.87,
        "rainfall_72h_mm": 54.82,
        "soil_moisture": 0.344,
        "model_version": "v1.0",
        "updated_at": "2026-09-16T19:30:25.498016+00:00"
      }
    },
    {
      "type": "Feature",
      "geometry": {
        "type": "Polygon",
        "coordinates": [
          [
            [
              93.975,
              24.475
            ],
            [
              94.225,
              24.475
            ],
            [
              94.225,
              24.725
            ],
            [
              93.975,
              24.725
            ],
            [
              93.975,
              24.475
            ]
          ]
        ]
      },
      "properties": {
        "cell_id": "NER_CELL_2460_9410",
        "latitude": 24.6,
        "longitude": 94.1,
        "state": "Manipur",
        "elevation_m": 1240.0,
        "slope_deg": 25.0,
        "base_susceptibility": 100,
        "current_risk": 0,
        "risk_level": "VERY_LOW",
        "risk_24h": 1,
        "risk_24h_level": "VERY_LOW",
        "data_quality": "GOOD",
        "rainfall_24h_mm": 31.87,
        "rainfall_72h_mm": 54.82,
        "soil_moisture": 0.344,
        "model_version": "v1.0",
        "updated_at": "2026-09-16T19:30:25.498016+00:00"
      }
    },
    {
      "type": "Feature",
      "geometry": {
        "type": "Polygon",
        "coordinates": [
          [
            [
              93.475,
              24.725
            ],
            [
              93.725,
              24.725
            ],
            [
              93.725,
              24.975
            ],
            [
              93.475,
              24.975
            ],
            [
              93.475,
              24.725
            ]
          ]
        ]
      },
      "properties": {
        "cell_id": "NER_CELL_2485_9360",
        "latitude": 24.85,
        "longitude": 93.6,
        "state": "Manipur",
        "elevation_m": 1265.0,
        "slope_deg": 25.0,
        "base_susceptibility": 100,
        "current_risk": 0,
        "risk_level": "VERY_LOW",
        "risk_24h": 1,
        "risk_24h_level": "VERY_LOW",
        "data_quality": "GOOD",
        "rainfall_24h_mm": 33.82,
        "rainfall_72h_mm": 58.17,
        "soil_moisture": 0.35,
        "model_version": "v1.0",
        "updated_at": "2026-09-16T19:30:25.498016+00:00"
      }
    },
    {
      "type": "Feature",
      "geometry": {
        "type": "Polygon",
        "coordinates": [
          [
            [
              93.725,
              24.725
            ],
            [
              93.975,
              24.725
            ],
            [
              93.975,
              24.975
            ],
            [
              93.725,
              24.975
            ],
            [
              93.725,
              24.725
            ]
          ]
        ]
      },
      "properties": {
        "cell_id": "NER_CELL_2485_9385",
        "latitude": 24.85,
        "longitude": 93.85,
        "state": "Manipur",
        "elevation_m": 1265.0,
        "slope_deg": 25.0,
        "base_susceptibility": 100,
        "current_risk": 0,
        "risk_level": "VERY_LOW",
        "risk_24h": 1,
        "risk_24h_level": "VERY_LOW",
        "data_quality": "GOOD",
        "rainfall_24h_mm": 33.82,
        "rainfall_72h_mm": 58.17,
        "soil_moisture": 0.351,
        "model_version": "v1.0",
        "updated_at": "2026-09-16T19:30:25.498016+00:00"
      }
    },
    {
      "type": "Feature",
      "geometry": {
        "type": "Polygon",
        "coordinates": [
          [
            [
              93.975,
              24.725
            ],
            [
              94.225,
              24.725
            ],
            [
              94.225,
              24.975
            ],
            [
              93.975,
              24.975
            ],
            [
              93.975,
              24.725
            ]
          ]
        ]
      },
      "properties": {
        "cell_id": "NER_CELL_2485_9410",
        "latitude": 24.85,
        "longitude": 94.1,
        "state": "Manipur",
        "elevation_m": 1265.0,
        "slope_deg": 25.0,
        "base_susceptibility": 100,
        "current_risk": 0,
        "risk_level": "VERY_LOW",
        "risk_24h": 1,
        "risk_24h_level": "VERY_LOW",
        "data_quality": "GOOD",
        "rainfall_24h_mm": 33.82,
        "rainfall_72h_mm": 58.17,
        "soil_moisture": 0.351,
        "model_version": "v1.0",
        "updated_at": "2026-09-16T19:30:25.498016+00:00"
      }
    },
    {
      "type": "Feature",
      "geometry": {
        "type": "Polygon",
        "coordinates": [
          [
            [
              93.475,
              24.975
            ],
            [
              93.725,
              24.975
            ],
            [
              93.725,
              25.225
            ],
            [
              93.475,
              25.225
            ],
            [
              93.475,
              24.975
            ]
          ]
        ]
      },
      "properties": {
        "cell_id": "NER_CELL_2510_9360",
        "latitude": 25.1,
        "longitude": 93.6,
        "state": "Manipur",
        "elevation_m": 1290.0,
        "slope_deg": 25.0,
        "base_susceptibility": 100,
        "current_risk": 0,
        "risk_level": "VERY_LOW",
        "risk_24h": 1,
        "risk_24h_level": "VERY_LOW",
        "data_quality": "GOOD",
        "rainfall_24h_mm": 35.79,
        "rainfall_72h_mm": 61.56,
        "soil_moisture": 0.358,
        "model_version": "v1.0",
        "updated_at": "2026-09-16T19:30:25.498016+00:00"
      }
    },
    {
      "type": "Feature",
      "geometry": {
        "type": "Polygon",
        "coordinates": [
          [
            [
              93.725,
              24.975
            ],
            [
              93.975,
              24.975
            ],
            [
              93.975,
              25.225
            ],
            [
              93.725,
              25.225
            ],
            [
              93.725,
              24.975
            ]
          ]
        ]
      },
      "properties": {
        "cell_id": "NER_CELL_2510_9385",
        "latitude": 25.1,
        "longitude": 93.85,
        "state": "Manipur",
        "elevation_m": 1290.0,
        "slope_deg": 25.0,
        "base_susceptibility": 100,
        "current_risk": 0,
        "risk_level": "VERY_LOW",
        "risk_24h": 1,
        "risk_24h_level": "VERY_LOW",
        "data_quality": "GOOD",
        "rainfall_24h_mm": 35.79,
        "rainfall_72h_mm": 61.56,
        "soil_moisture": 0.359,
        "model_version": "v1.0",
        "updated_at": "2026-09-16T19:30:25.498016+00:00"
      }
    },
    {
      "type": "Feature",
      "geometry": {
        "type": "Polygon",
        "coordinates": [
          [
            [
              93.975,
              24.975
            ],
            [
              94.225,
              24.975
            ],
            [
              94.225,
              25.225
            ],
            [
              93.975,
              25.225
            ],
            [
              93.975,
              24.975
            ]
          ]
        ]
      },
      "properties": {
        "cell_id": "NER_CELL_2510_9410",
        "latitude": 25.1,
        "longitude": 94.1,
        "state": "Manipur",
        "elevation_m": 1290.0,
        "slope_deg": 25.0,
        "base_susceptibility": 100,
        "current_risk": 0,
        "risk_level": "VERY_LOW",
        "risk_24h": 1,
        "risk_24h_level": "VERY_LOW",
        "data_quality": "GOOD",
        "rainfall_24h_mm": 35.79,
        "rainfall_72h_mm": 61.56,
        "soil_moisture": 0.359,
        "model_version": "v1.0",
        "updated_at": "2026-09-16T19:30:25.498016+00:00"
      }
    },
    {
      "type": "Feature",
      "geometry": {
        "type": "Polygon",
        "coordinates": [
          [
            [
              91.675,
              23.675
            ],
            [
              91.925,
              23.675
            ],
            [
              91.925,
              23.925
            ],
            [
              91.675,
              23.925
            ],
            [
              91.675,
              23.675
            ]
          ]
        ]
      },
      "properties": {
        "cell_id": "NER_CELL_2380_9180",
        "latitude": 23.8,
        "longitude": 91.8,
        "state": "Tripura",
        "elevation_m": 468.0,
        "slope_deg": 18.0,
        "base_susceptibility": 98,
        "current_risk": 0,
        "risk_level": "VERY_LOW",
        "risk_24h": 1,
        "risk_24h_level": "VERY_LOW",
        "data_quality": "GOOD",
        "rainfall_24h_mm": 25.8,
        "rainfall_72h_mm": 44.38,
        "soil_moisture": 0.305,
        "model_version": "v1.0",
        "updated_at": "2026-09-16T19:30:25.670719+00:00"
      }
    },
    {
      "type": "Feature",
      "geometry": {
        "type": "Polygon",
        "coordinates": [
          [
            [
              91.925,
              23.675
            ],
            [
              92.175,
              23.675
            ],
            [
              92.175,
              23.925
            ],
            [
              91.925,
              23.925
            ],
            [
              91.925,
              23.675
            ]
          ]
        ]
      },
      "properties": {
        "cell_id": "NER_CELL_2380_9205",
        "latitude": 23.8,
        "longitude": 92.05,
        "state": "Tripura",
        "elevation_m": 468.0,
        "slope_deg": 18.0,
        "base_susceptibility": 98,
        "current_risk": 0,
        "risk_level": "VERY_LOW",
        "risk_24h": 1,
        "risk_24h_level": "VERY_LOW",
        "data_quality": "GOOD",
        "rainfall_24h_mm": 25.8,
        "rainfall_72h_mm": 44.38,
        "soil_moisture": 0.308,
        "model_version": "v1.0",
        "updated_at": "2026-09-16T19:30:25.670719+00:00"
      }
    },
    {
      "type": "Feature",
      "geometry": {
        "type": "Polygon",
        "coordinates": [
          [
            [
              92.175,
              23.675
            ],
            [
              92.425,
              23.675
            ],
            [
              92.425,
              23.925
            ],
            [
              92.175,
              23.925
            ],
            [
              92.175,
              23.675
            ]
          ]
        ]
      },
      "properties": {
        "cell_id": "NER_CELL_2380_9230",
        "latitude": 23.8,
        "longitude": 92.3,
        "state": "Mizoram",
        "elevation_m": 1138.0,
        "slope_deg": 26.0,
        "base_susceptibility": 100,
        "current_risk": 0,
        "risk_level": "VERY_LOW",
        "risk_24h": 1,
        "risk_24h_level": "VERY_LOW",
        "data_quality": "GOOD",
        "rainfall_24h_mm": 25.8,
        "rainfall_72h_mm": 44.38,
        "soil_moisture": 0.311,
        "model_version": "v1.0",
        "updated_at": "2026-09-16T19:30:25.670719+00:00"
      }
    },
    {
      "type": "Feature",
      "geometry": {
        "type": "Polygon",
        "coordinates": [
          [
            [
              91.675,
              23.925
            ],
            [
              91.925,
              23.925
            ],
            [
              91.925,
              24.175
            ],
            [
              91.675,
              24.175
            ],
            [
              91.675,
              23.925
            ]
          ]
        ]
      },
      "properties": {
        "cell_id": "NER_CELL_2405_9180",
        "latitude": 24.05,
        "longitude": 91.8,
        "state": "Tripura",
        "elevation_m": 483.0,
        "slope_deg": 18.0,
        "base_susceptibility": 98,
        "current_risk": 0,
        "risk_level": "VERY_LOW",
        "risk_24h": 1,
        "risk_24h_level": "VERY_LOW",
        "data_quality": "GOOD",
        "rainfall_24h_mm": 27.65,
        "rainfall_72h_mm": 47.56,
        "soil_moisture": 0.311,
        "model_version": "v1.0",
        "updated_at": "2026-09-16T19:30:25.670719+00:00"
      }
    },
    {
      "type": "Feature",
      "geometry": {
        "type": "Polygon",
        "coordinates": [
          [
            [
              91.925,
              23.925
            ],
            [
              92.175,
              23.925
            ],
            [
              92.175,
              24.175
            ],
            [
              91.925,
              24.175
            ],
            [
              91.925,
              23.925
            ]
          ]
        ]
      },
      "properties": {
        "cell_id": "NER_CELL_2405_9205",
        "latitude": 24.05,
        "longitude": 92.05,
        "state": "Tripura",
        "elevation_m": 483.0,
        "slope_deg": 18.0,
        "base_susceptibility": 98,
        "current_risk": 0,
        "risk_level": "VERY_LOW",
        "risk_24h": 1,
        "risk_24h_level": "VERY_LOW",
        "data_quality": "GOOD",
        "rainfall_24h_mm": 27.65,
        "rainfall_72h_mm": 47.56,
        "soil_moisture": 0.315,
        "model_version": "v1.0",
        "updated_at": "2026-09-16T19:30:25.670719+00:00"
      }
    },
    {
      "type": "Feature",
      "geometry": {
        "type": "Polygon",
        "coordinates": [
          [
            [
              92.175,
              23.925
            ],
            [
              92.425,
              23.925
            ],
            [
              92.425,
              24.175
            ],
            [
              92.175,
              24.175
            ],
            [
              92.175,
              23.925
            ]
          ]
        ]
      },
      "properties": {
        "cell_id": "NER_CELL_2405_9230",
        "latitude": 24.05,
        "longitude": 92.3,
        "state": "Mizoram",
        "elevation_m": 1165.5,
        "slope_deg": 26.0,
        "base_susceptibility": 100,
        "current_risk": 0,
        "risk_level": "VERY_LOW",
        "risk_24h": 1,
        "risk_24h_level": "VERY_LOW",
        "data_quality": "GOOD",
        "rainfall_24h_mm": 27.65,
        "rainfall_72h_mm": 47.56,
        "soil_moisture": 0.318,
        "model_version": "v1.0",
        "updated_at": "2026-09-16T19:30:25.670719+00:00"
      }
    },
    {
      "type": "Feature",
      "geometry": {
        "type": "Polygon",
        "coordinates": [
          [
            [
              91.675,
              24.175
            ],
            [
              91.925,
              24.175
            ],
            [
              91.925,
              24.425
            ],
            [
              91.675,
              24.425
            ],
            [
              91.675,
              24.175
            ]
          ]
        ]
      },
      "properties": {
        "cell_id": "NER_CELL_2430_9180",
        "latitude": 24.3,
        "longitude": 91.8,
        "state": "Tripura",
        "elevation_m": 498.0,
        "slope_deg": 18.0,
        "base_susceptibility": 98,
        "current_risk": 0,
        "risk_level": "VERY_LOW",
        "risk_24h": 1,
        "risk_24h_level": "VERY_LOW",
        "data_quality": "GOOD",
        "rainfall_24h_mm": 29.55,
        "rainfall_72h_mm": 50.83,
        "soil_moisture": 0.318,
        "model_version": "v1.0",
        "updated_at": "2026-09-16T19:30:25.670719+00:00"
      }
    },
    {
      "type": "Feature",
      "geometry": {
        "type": "Polygon",
        "coordinates": [
          [
            [
              91.925,
              24.175
            ],
            [
              92.175,
              24.175
            ],
            [
              92.175,
              24.425
            ],
            [
              91.925,
              24.425
            ],
            [
              91.925,
              24.175
            ]
          ]
        ]
      },
      "properties": {
        "cell_id": "NER_CELL_2430_9205",
        "latitude": 24.3,
        "longitude": 92.05,
        "state": "Tripura",
        "elevation_m": 498.0,
        "slope_deg": 18.0,
        "base_susceptibility": 98,
        "current_risk": 0,
        "risk_level": "VERY_LOW",
        "risk_24h": 1,
        "risk_24h_level": "VERY_LOW",
        "data_quality": "GOOD",
        "rainfall_24h_mm": 29.55,
        "rainfall_72h_mm": 50.83,
        "soil_moisture": 0.321,
        "model_version": "v1.0",
        "updated_at": "2026-09-16T19:30:25.670719+00:00"
      }
    },
    {
      "type": "Feature",
      "geometry": {
        "type": "Polygon",
        "coordinates": [
          [
            [
              92.175,
              24.175
            ],
            [
              92.425,
              24.175
            ],
            [
              92.425,
              24.425
            ],
            [
              92.175,
              24.425
            ],
            [
              92.175,
              24.175
            ]
          ]
        ]
      },
      "properties": {
        "cell_id": "NER_CELL_2430_9230",
        "latitude": 24.3,
        "longitude": 92.3,
        "state": "Mizoram",
        "elevation_m": 1193.0,
        "slope_deg": 26.0,
        "base_susceptibility": 100,
        "current_risk": 0,
        "risk_level": "VERY_LOW",
        "risk_24h": 1,
        "risk_24h_level": "VERY_LOW",
        "data_quality": "GOOD",
        "rainfall_24h_mm": 29.55,
        "rainfall_72h_mm": 50.83,
        "soil_moisture": 0.324,
        "model_version": "v1.0",
        "updated_at": "2026-09-16T19:30:25.670719+00:00"
      }
    },
    {
      "type": "Feature",
      "geometry": {
        "type": "Polygon",
        "coordinates": [
          [
            [
              92.675,
              24.875
            ],
            [
              92.925,
              24.875
            ],
            [
              92.925,
              25.125
            ],
            [
              92.675,
              25.125
            ],
            [
              92.675,
              24.875
            ]
          ]
        ]
      },
      "properties": {
        "cell_id": "NER_CELL_2500_9280",
        "latitude": 25.0,
        "longitude": 92.8,
        "state": "Meghalaya",
        "elevation_m": 1450.0,
        "slope_deg": 29.4,
        "base_susceptibility": 100,
        "current_risk": 0,
        "risk_level": "VERY_LOW",
        "risk_24h": 1,
        "risk_24h_level": "VERY_LOW",
        "data_quality": "GOOD",
        "rainfall_24h_mm": 35.0,
        "rainfall_72h_mm": 60.2,
        "soil_moisture": 0.349,
        "model_version": "v1.0",
        "updated_at": "2026-09-16T19:30:25.844471+00:00"
      }
    },
    {
      "type": "Feature",
      "geometry": {
        "type": "Polygon",
        "coordinates": [
          [
            [
              92.925,
              24.875
            ],
            [
              93.175,
              24.875
            ],
            [
              93.175,
              25.125
            ],
            [
              92.925,
              25.125
            ],
            [
              92.925,
              24.875
            ]
          ]
        ]
      },
      "properties": {
        "cell_id": "NER_CELL_2500_9305",
        "latitude": 25.0,
        "longitude": 93.05,
        "state": "Manipur",
        "elevation_m": 1280.0,
        "slope_deg": 25.0,
        "base_susceptibility": 100,
        "current_risk": 0,
        "risk_level": "VERY_LOW",
        "risk_24h": 1,
        "risk_24h_level": "VERY_LOW",
        "data_quality": "GOOD",
        "rainfall_24h_mm": 35.0,
        "rainfall_72h_mm": 60.2,
        "soil_moisture": 0.352,
        "model_version": "v1.0",
        "updated_at": "2026-09-16T19:30:25.844471+00:00"
      }
    },
    {
      "type": "Feature",
      "geometry": {
        "type": "Polygon",
        "coordinates": [
          [
            [
              93.175,
              24.875
            ],
            [
              93.425,
              24.875
            ],
            [
              93.425,
              25.125
            ],
            [
              93.175,
              25.125
            ],
            [
              93.175,
              24.875
            ]
          ]
        ]
      },
      "properties": {
        "cell_id": "NER_CELL_2500_9330",
        "latitude": 25.0,
        "longitude": 93.3,
        "state": "Manipur",
        "elevation_m": 1280.0,
        "slope_deg": 25.0,
        "base_susceptibility": 100,
        "current_risk": 0,
        "risk_level": "VERY_LOW",
        "risk_24h": 1,
        "risk_24h_level": "VERY_LOW",
        "data_quality": "GOOD",
        "rainfall_24h_mm": 35.0,
        "rainfall_72h_mm": 60.2,
        "soil_moisture": 0.353,
        "model_version": "v1.0",
        "updated_at": "2026-09-16T19:30:25.844471+00:00"
      }
    },
    {
      "type": "Feature",
      "geometry": {
        "type": "Polygon",
        "coordinates": [
          [
            [
              92.675,
              25.125
            ],
            [
              92.925,
              25.125
            ],
            [
              92.925,
              25.375
            ],
            [
              92.675,
              25.375
            ],
            [
              92.675,
              25.125
            ]
          ]
        ]
      },
      "properties": {
        "cell_id": "NER_CELL_2525_9280",
        "latitude": 25.25,
        "longitude": 92.8,
        "state": "Meghalaya",
        "elevation_m": 1487.5,
        "slope_deg": 29.4,
        "base_susceptibility": 100,
        "current_risk": 0,
        "risk_level": "VERY_LOW",
        "risk_24h": 1,
        "risk_24h_level": "VERY_LOW",
        "data_quality": "GOOD",
        "rainfall_24h_mm": 36.96,
        "rainfall_72h_mm": 63.57,
        "soil_moisture": 0.357,
        "model_version": "v1.0",
        "updated_at": "2026-09-16T19:30:25.844471+00:00"
      }
    },
    {
      "type": "Feature",
      "geometry": {
        "type": "Polygon",
        "coordinates": [
          [
            [
              92.925,
              25.125
            ],
            [
              93.175,
              25.125
            ],
            [
              93.175,
              25.375
            ],
            [
              92.925,
              25.375
            ],
            [
              92.925,
              25.125
            ]
          ]
        ]
      },
      "properties": {
        "cell_id": "NER_CELL_2525_9305",
        "latitude": 25.25,
        "longitude": 93.05,
        "state": "Manipur",
        "elevation_m": 1305.0,
        "slope_deg": 25.0,
        "base_susceptibility": 100,
        "current_risk": 0,
        "risk_level": "VERY_LOW",
        "risk_24h": 1,
        "risk_24h_level": "VERY_LOW",
        "data_quality": "GOOD",
        "rainfall_24h_mm": 36.96,
        "rainfall_72h_mm": 63.57,
        "soil_moisture": 0.359,
        "model_version": "v1.0",
        "updated_at": "2026-09-16T19:30:25.844471+00:00"
      }
    },
    {
      "type": "Feature",
      "geometry": {
        "type": "Polygon",
        "coordinates": [
          [
            [
              93.175,
              25.125
            ],
            [
              93.425,
              25.125
            ],
            [
              93.425,
              25.375
            ],
            [
              93.175,
              25.375
            ],
            [
              93.175,
              25.125
            ]
          ]
        ]
      },
      "properties": {
        "cell_id": "NER_CELL_2525_9330",
        "latitude": 25.25,
        "longitude": 93.3,
        "state": "Manipur",
        "elevation_m": 1305.0,
        "slope_deg": 25.0,
        "base_susceptibility": 100,
        "current_risk": 0,
        "risk_level": "VERY_LOW",
        "risk_24h": 1,
        "risk_24h_level": "VERY_LOW",
        "data_quality": "GOOD",
        "rainfall_24h_mm": 36.96,
        "rainfall_72h_mm": 63.57,
        "soil_moisture": 0.361,
        "model_version": "v1.0",
        "updated_at": "2026-09-16T19:30:25.844471+00:00"
      }
    },
    {
      "type": "Feature",
      "geometry": {
        "type": "Polygon",
        "coordinates": [
          [
            [
              92.675,
              25.375
            ],
            [
              92.925,
              25.375
            ],
            [
              92.925,
              25.625
            ],
            [
              92.675,
              25.625
            ],
            [
              92.675,
              25.375
            ]
          ]
        ]
      },
      "properties": {
        "cell_id": "NER_CELL_2550_9280",
        "latitude": 25.5,
        "longitude": 92.8,
        "state": "Meghalaya",
        "elevation_m": 1525.0,
        "slope_deg": 29.4,
        "base_susceptibility": 100,
        "current_risk": 0,
        "risk_level": "VERY_LOW",
        "risk_24h": 1,
        "risk_24h_level": "VERY_LOW",
        "data_quality": "GOOD",
        "rainfall_24h_mm": 38.91,
        "rainfall_72h_mm": 66.93,
        "soil_moisture": 0.364,
        "model_version": "v1.0",
        "updated_at": "2026-09-16T19:30:25.844471+00:00"
      }
    },
    {
      "type": "Feature",
      "geometry": {
        "type": "Polygon",
        "coordinates": [
          [
            [
              92.925,
              25.375
            ],
            [
              93.175,
              25.375
            ],
            [
              93.175,
              25.625
            ],
            [
              92.925,
              25.625
            ],
            [
              92.925,
              25.375
            ]
          ]
        ]
      },
      "properties": {
        "cell_id": "NER_CELL_2550_9305",
        "latitude": 25.5,
        "longitude": 93.05,
        "state": "Manipur",
        "elevation_m": 1330.0,
        "slope_deg": 25.0,
        "base_susceptibility": 100,
        "current_risk": 0,
        "risk_level": "VERY_LOW",
        "risk_24h": 1,
        "risk_24h_level": "VERY_LOW",
        "data_quality": "GOOD",
        "rainfall_24h_mm": 38.91,
        "rainfall_72h_mm": 66.93,
        "soil_moisture": 0.366,
        "model_version": "v1.0",
        "updated_at": "2026-09-16T19:30:25.844471+00:00"
      }
    },
    {
      "type": "Feature",
      "geometry": {
        "type": "Polygon",
        "coordinates": [
          [
            [
              93.175,
              25.375
            ],
            [
              93.425,
              25.375
            ],
            [
              93.425,
              25.625
            ],
            [
              93.175,
              25.625
            ],
            [
              93.175,
              25.375
            ]
          ]
        ]
      },
      "properties": {
        "cell_id": "NER_CELL_2550_9330",
        "latitude": 25.5,
        "longitude": 93.3,
        "state": "Manipur",
        "elevation_m": 1330.0,
        "slope_deg": 25.0,
        "base_susceptibility": 100,
        "current_risk": 0,
        "risk_level": "VERY_LOW",
        "risk_24h": 1,
        "risk_24h_level": "VERY_LOW",
        "data_quality": "GOOD",
        "rainfall_24h_mm": 38.91,
        "rainfall_72h_mm": 66.93,
        "soil_moisture": 0.368,
        "model_version": "v1.0",
        "updated_at": "2026-09-16T19:30:25.844471+00:00"
      }
    }
  ]
}